[{"OBJECT_NAME":"TIANMU-1 10","OBJECT_ID":"2023-101D","EPOCH":"2026-03-09T23:06:46.939392","MEAN_MOTION":15.2921896,"ECCENTRICITY":0.00069292,"INCLINATION":97.2749,"RA_OF_ASC_NODE":122.1027,"ARG_OF_PERICENTER":133.6162,"MEAN_ANOMALY":226.5654,"EPHEMERIS_TYPE":0,"CLASSIFICATION_TYPE":"U","NORAD_CAT_ID":57402,"ELEMENT_SET_NO":999,"REV_AT_EPOCH":14647,"BSTAR":0.00032238884,"MEAN_MOTION_DOT":9.075e-5,"MEAN_MOTION_DDOT":0},{"OBJECT_NAME":"STARLINK-32486","OBJECT_ID":"2024-202K","EPOCH":"2026-03-09T12:22:43.199328","MEAN_MOTION":15.27650668,"ECCENTRICITY":0.00019522,"INCLINATION":43.0127,"RA_OF_ASC_NODE":238.7574,"ARG_OF_PERICENTER":268.3052,"MEAN_ANOMALY":91.7576,"EPHEMERIS_TYPE":0,"CLASSIFICATION_TYPE":"U","NORAD_CAT_ID":61854,"ELEMENT_SET_NO":999,"REV_AT_EPOCH":7531,"BSTAR":-0.0006499397,"MEAN_MOTION_DOT":-0.00018143,"MEAN_MOTION_DDOT":0}]
